OBJECT_NAME,OBJECT_ID,EPOCH,MEAN_MOTION,ECCENTRICITY,INCLINATION,RA_OF_ASC_NODE,ARG_OF_PERICENTER,MEAN_ANOMALY,EPHEMERIS_TYPE,CLASSIFICATION_TYPE,NORAD_CAT_ID,ELEMENT_SET_NO,REV_AT_EPOCH,BSTAR,MEAN_MOTION_DOT,MEAN_MOTION_DDOT
CENTISPACE-1 S4,2022-108B,2026-07-02T17:04:20.926848,14.61957479,.0009472,53.5316,348.5092,24.5506,335.5919,0,U,53758,999,20383,.18485E-3,.743E-5,0
BLUEWALKER-3,2022-111AL,2026-07-02T15:24:36.187200,15.38472807,.0005018,53.2306,321.4057,213.8229,146.2457,0,U,53807,999,21258,.20444E-3,.7489E-4,0
YUNHAI-1 03,2022-115A,2026-07-02T18:16:01.583616,14.32729114,.0004979,98.5544,181.7106,16.3077,343.8267,0,U,53877,999,19774,.1365E-3,.328E-5,0
CENTISPACE-1 S5,2022-126A,2026-07-02T17:30:29.958624,14.63037936,.0014715,54.9976,150.7629,101.1426,259.1224,0,U,54020,999,19931,.21122E-3,.903E-5,0
CENTISPACE-1 S6,2022-126B,2026-07-02T17:31:49.870848,14.62301934,.0016526,54.9979,152.6970,101.8540,258.4308,0,U,54021,999,19927,.1224E-3,.434E-5,0
OTB-3-GAZELLE,2022-127A,2026-07-02T17:37:18.018912,14.42680326,.0013955,98.3950,175.2022,137.5990,222.6281,0,U,54023,999,19660,.70785E-4,.192E-5,0
ASO-S,2022-129A,2026-07-02T18:11:38.835168,14.52069644,.0015359,98.2757,188.6155,48.6138,311.6376,0,U,54029,999,19768,.77E-4,.267E-5,0
HJ-2E,2022-132A,2026-07-02T19:06:53.820864,15.22545455,.0018602,97.3796,187.8934,318.5705,41.4120,0,U,54035,999,20679,.34788E-3,.8041E-4,0
COSMOS 2561,2022-137A,2026-07-02T18:23:30.746976,15.52094415,.0008666,96.9169,242.1868,336.8414,23.2448,0,U,54109,999,20876,.23895E-3,.1436E-3,0
GONETS-M 23,2022-139A,2026-07-02T19:10:06.132576,12.42891473,.0021589,82.5077,338.5914,185.0683,175.0182,0,U,54150,999,16758,.13188E-3,.28E-6,0
GONETS-M 24,2022-139B,2026-07-02T18:31:19.709760,12.42892101,.0016644,82.4999,337.6572,194.8639,165.1953,0,U,54151,999,16758,.10536E-3,.24E-6,0
GONETS-M 25,2022-139C,2026-07-02T18:11:45.678912,12.42890490,.0020583,82.5065,338.3604,193.9483,166.1030,0,U,54152,999,16758,.96879E-6,.1E-6,0
SKIF-D,2022-139D,2026-07-02T15:30:20.885184,5.00427569,.0007414,89.9494,96.6636,192.7403,167.3070,0,U,54153,999,6488,0,.14E-6,0
MATS,2022-147A,2026-07-02T17:39:26.526816,15.05453941,.0013727,97.6829,185.2652,140.5865,219.6363,0,U,54227,999,20010,.2697E-3,.3819E-4,0
JILIN-1 GAOFEN 03D54,2022-155D,2026-07-02T12:56:12.358752,16.18363848,.0011301,97.6168,338.9196,264.6371,95.3627,0,U,54254,999,20276,.81181E-3,.1363019E-1,.25559E-5
EOS-6 (OCEANSAT-3),2022-158A,2026-07-01T14:45:17.099136,14.47008826,.00004714,98.3548,280.6181,54.2776,305.8460,0,U,54361,999,18992,.90615141E-4,.286E-5,0
DONGPO 09,2022-167D,2026-07-02T18:42:24.061824,15.36687917,.0003425,97.6909,355.4862,80.4654,279.6977,0,U,54685,999,19784,.36932E-3,.13157E-3,0
DONGPO 08,2022-167E,2026-07-02T18:53:52.426176,15.33965214,.0009361,97.6874,352.5982,111.3623,248.8619,0,U,54686,999,19771,.35817E-3,.11706E-3,0
2022-167F,2022-167F,2026-07-02T18:01:39.170784,16.02112639,.0004313,97.6051,13.7003,246.3672,113.7154,0,U,54687,999,19931,.72653E-3,.415108E-2,.78106E-4
DONGPO 10,2022-167H,2026-07-02T18:51:33.833664,15.34777693,.0005915,97.6954,354.5850,65.9902,294.1959,0,U,54689,999,19775,.35253E-3,.11812E-3,0
JILIN-1 GAOFEN 03D48,2022-167P,2026-07-02T18:36:57.106080,15.35559848,.0007289,97.6889,353.9578,68.7461,291.4559,0,U,54695,999,19778,.36283E-3,.12471E-3,0
STAR VIBE,2023-001A,2026-07-02T17:40:28.591392,15.43051030,.000664,97.3160,248.2667,69.1912,291.0046,0,U,55009,999,19462,.34922E-3,.15352E-3,0
BRO-8,2023-001C,2026-07-02T17:46:45.372288,15.50028162,.000618,97.3196,249.1583,80.3579,279.8370,0,U,55011,999,19461,.59582E-3,.33445E-3,0
CONNECTA T1.2,2023-001D,2026-07-02T11:00:15.340896,15.51947793,.0005398,97.3244,254.4308,56.2389,303.9377,0,U,55012,999,19491,.76198E-3,.45878E-3,0
BIRKELAND,2023-001G,2026-07-02T17:44:08.697120,15.40354129,.0007677,97.3338,251.7506,60.5863,299.6149,0,U,55015,999,19474,.24716E-3,.9903E-4,0
ION SCV-008,2023-001AU,2026-07-02T07:02:33.960768,15.28750470,.0013651,97.5718,279.8658,323.6260,36.4050,0,U,55051,999,19364,.26326E-3,.7299E-4,0
ION SCV-007,2023-001BD,2026-07-02T15:18:57.682368,14.77567355,.0010954,97.9000,246.3463,287.9246,72.0770,0,U,55060,999,18853,.80783E-4,.526E-5,0
HUYGENS,2023-001CN,2026-07-02T17:44:15.348192,15.40351614,.0009878,97.3242,250.9602,37.4214,322.7719,0,U,55093,999,19476,.24792E-3,.994E-4,0
SHARJAHSAT-1,2023-001CZ,2026-07-02T17:49:10.280640,15.49687288,.0005978,97.3165,252.7293,59.6125,300.5717,0,U,55104,999,19490,.40229E-3,.2225E-3,0
HORUS 1,2023-025A,2026-07-02T18:52:34.608288,15.23426364,.0002397,97.3458,258.0530,131.5181,228.6262,0,U,55690,999,18642,.25723E-3,.6056E-4,0
