[{"name":"CENTISPACE-1 S4","l1":"1 53758U 22108B   26183.71135332  .00000743  00000+0  18485-3 0  9998","l2":"2 53758  53.5316 348.5092 0009472  24.5506 335.5919 14.61957479203832","cat":"navigation"},{"name":"BLUEWALKER-3","l1":"1 53807U 22111AL  26183.64208550  .00007489  00000+0  20444-3 0  9994","l2":"2 53807  53.2306 321.4057 0005018 213.8229 146.2457 15.38472807212589","cat":"other"},{"name":"YUNHAI-1 03","l1":"1 53877U 22115A   26183.76112944  .00000328  00000+0  13650-3 0  9995","l2":"2 53877  98.5544 181.7106 0004979  16.3077 343.8267 14.32729114197749","cat":"science"},{"name":"CENTISPACE-1 S5","l1":"1 54020U 22126A   26183.72951341  .00000903  00000+0  21122-3 0  9998","l2":"2 54020  54.9976 150.7629 0014715 101.1426 259.1224 14.63037936199316","cat":"navigation"},{"name":"CENTISPACE-1 S6","l1":"1 54021U 22126B   26183.73043832  .00000434  00000+0  12240-3 0  9997","l2":"2 54021  54.9979 152.6970 0016526 101.8540 258.4308 14.62301934199277","cat":"navigation"},{"name":"OTB-3-GAZELLE","l1":"1 54023U 22127A   26183.73423633  .00000192  00000+0  70785-4 0  9991","l2":"2 54023  98.3950 175.2022 0013955 137.5990 222.6281 14.42680326196607","cat":"other"},{"name":"ASO-S","l1":"1 54029U 22129A   26183.75808837  .00000267  00000+0  77000-4 0  9994","l2":"2 54029  98.2757 188.6155 0015359  48.6138 311.6376 14.52069644197686","cat":"other"},{"name":"HJ-2E","l1":"1 54035U 22132A   26183.79645626  .00008041  00000+0  34788-3 0  9997","l2":"2 54035  97.3796 187.8934 0018602 318.5705  41.4120 15.22545455206790","cat":"other"},{"name":"COSMOS 2561","l1":"1 54109U 22137A   26183.76632809  .00014360  00000+0  23895-3 0  9998","l2":"2 54109  96.9169 242.1868 0008666 336.8414  23.2448 15.52094415208769","cat":"other"},{"name":"GONETS-M 23","l1":"1 54150U 22139A   26183.79868209  .00000028  00000+0  13188-3 0  9994","l2":"2 54150  82.5077 338.5914 0021589 185.0683 175.0182 12.42891473167587","cat":"communications"},{"name":"GONETS-M 24","l1":"1 54151U 22139B   26183.77175590  .00000024  00000+0  10536-3 0  9997","l2":"2 54151  82.4999 337.6572 0016644 194.8639 165.1953 12.42892101167580","cat":"communications"},{"name":"GONETS-M 25","l1":"1 54152U 22139C   26183.75816758  .00000010  00000+0  96879-6 0  9996","l2":"2 54152  82.5065 338.3604 0020583 193.9483 166.1030 12.42890490167580","cat":"communications"},{"name":"SKIF-D","l1":"1 54153U 22139D   26183.64607506  .00000014  00000+0  00000+0 0  9992","l2":"2 54153  89.9494  96.6636 0007414 192.7403 167.3070  5.00427569 64889","cat":"other"},{"name":"MATS","l1":"1 54227U 22147A   26183.73572369  .00003819  00000+0  26970-3 0  9995","l2":"2 54227  97.6829 185.2652 0013727 140.5865 219.6363 15.05453941200101","cat":"other"},{"name":"JILIN-1 GAOFEN 03D54","l1":"1 54254U 22155D   26183.53903193  .01363019  25559-5  81181-3 0  9994","l2":"2 54254  97.6168 338.9196 0011301 264.6371  95.3627 16.18363848202760","cat":"science"},{"name":"EOS-6 (OCEANSAT-3)","l1":"1 54361U 22158A   26182.61478124  .00000286  00000+0  90615-4 0  9999","l2":"2 54361  98.3548 280.6181 0000471  54.2776 305.8460 14.47008826189922","cat":"other"},{"name":"DONGPO 09","l1":"1 54685U 22167D   26183.77944516  .00013157  00000+0  36932-3 0  9991","l2":"2 54685  97.6909 355.4862 0003425  80.4654 279.6977 15.36687917197843","cat":"other"},{"name":"DONGPO 08","l1":"1 54686U 22167E   26183.78741234  .00011706  00000+0  35817-3 0  9994","l2":"2 54686  97.6874 352.5982 0009361 111.3623 248.8619 15.33965214197714","cat":"other"},{"name":"2022-167F","l1":"1 54687U 22167F   26183.75114781  .00415108  78106-4  72653-3 0  9993","l2":"2 54687  97.6051  13.7003 0004313 246.3672 113.7154 16.02112639199311","cat":"other"},{"name":"DONGPO 10","l1":"1 54689U 22167H   26183.78580826  .00011812  00000+0  35253-3 0  9997","l2":"2 54689  97.6954 354.5850 0005915  65.9902 294.1959 15.34777693197755","cat":"other"},{"name":"JILIN-1 GAOFEN 03D48","l1":"1 54695U 22167P   26183.77566095  .00012471  00000+0  36283-3 0  9991","l2":"2 54695  97.6889 353.9578 0007289  68.7461 291.4559 15.35559848197786","cat":"science"},{"name":"STAR VIBE","l1":"1 55009U 23001A   26183.73644203  .00015352  00000+0  34922-3 0  9992","l2":"2 55009  97.3160 248.2667 0006640  69.1912 291.0046 15.43051030194622","cat":"other"},{"name":"BRO-8","l1":"1 55011U 23001C   26183.74080292  .00033445  00000+0  59582-3 0  9990","l2":"2 55011  97.3196 249.1583 0006180  80.3579 279.8370 15.50028162194615","cat":"other"},{"name":"CONNECTA T1.2","l1":"1 55012U 23001D   26183.45851089  .00045878  00000+0  76198-3 0  9994","l2":"2 55012  97.3244 254.4308 0005398  56.2389 303.9377 15.51947793194915","cat":"communications"},{"name":"BIRKELAND","l1":"1 55015U 23001G   26183.73898955  .00009903  00000+0  24716-3 0  9999","l2":"2 55015  97.3338 251.7506 0007677  60.5863 299.6149 15.40354129194741","cat":"other"},{"name":"ION SCV-008","l1":"1 55051U 23001AU  26183.29344862  .00007299  00000+0  26326-3 0  9998","l2":"2 55051  97.5718 279.8658 0013651 323.6260  36.4050 15.28750470193648","cat":"other"},{"name":"ION SCV-007","l1":"1 55060U 23001BD  26183.63816762  .00000526  00000+0  80783-4 0  9993","l2":"2 55060  97.9000 246.3463 0010954 287.9246  72.0770 14.77567355188536","cat":"other"},{"name":"HUYGENS","l1":"1 55093U 23001CN  26183.73906653  .00009940  00000+0  24792-3 0  9995","l2":"2 55093  97.3242 250.9602 0009878  37.4214 322.7719 15.40351614194766","cat":"other"},{"name":"SHARJAHSAT-1","l1":"1 55104U 23001CZ  26183.74248010  .00022250  00000+0  40229-3 0  9997","l2":"2 55104  97.3165 252.7293 0005978  59.6125 300.5717 15.49687288194909","cat":"other"},{"name":"HORUS 1","l1":"1 55690U 23025A   26183.78651167  .00006056  00000+0  25723-3 0  9996","l2":"2 55690  97.3458 258.0530 0002397 131.5181 228.6262 15.23426364186422","cat":"other"}]